FENGYUN 1C DEB          
1 30513U 99025AJB 17345.73938331  .00125031  00000-0  21394-2 0  9997
2 30513  99.0183  45.7231 0012410  72.7322 287.5282 15.50716182581821
